STARLINK-30715
1 57941U 23148G   25333.15220802  .00000728  00000+0  36700-4 0  9996
2 57941  53.1604 120.9741 0001153  86.1797 273.9335 15.30192155123177